[{"OBJECT_NAME":"HAWK-11B","OBJECT_ID":"2024-247C","EPOCH":"2026-03-09T10:44:06.809856","MEAN_MOTION":15.2884707,"ECCENTRICITY":0.00046902,"INCLINATION":45.0161,"RA_OF_ASC_NODE":115.761,"ARG_OF_PERICENTER":333.0326,"MEAN_ANOMALY":27.0314,"EPHEMERIS_TYPE":0,"CLASSIFICATION_TYPE":"U","NORAD_CAT_ID":62379,"ELEMENT_SET_NO":999,"REV_AT_EPOCH":6773,"BSTAR":0.00032841927,"MEAN_MOTION_DOT":9.093e-5,"MEAN_MOTION_DDOT":0},{"OBJECT_NAME":"STARLINK-34672","OBJECT_ID":"2025-224N","EPOCH":"2026-03-09T02:36:14.972832","MEAN_MOTION":15.30204692,"ECCENTRICITY":5.318e-5,"INCLINATION":53.1616,"RA_OF_ASC_NODE":14.1636,"ARG_OF_PERICENTER":91.8621,"MEAN_ANOMALY":268.2441,"EPHEMERIS_TYPE":0,"CLASSIFICATION_TYPE":"U","NORAD_CAT_ID":65894,"ELEMENT_SET_NO":999,"REV_AT_EPOCH":2478,"BSTAR":0.0008514544,"MEAN_MOTION_DOT":0.00024947,"MEAN_MOTION_DDOT":0}]
